*******************************************************************************
Ephemeris / WWW_USER Mon Mar 10 06:43:36 2025 Pasadena, USA      / Horizons    
*******************************************************************************
Target body name: (2018 TG6)                      {source: JPL#30}
Center body name: Earth (399)                     {source: DE441}
Center-site name: Mauna Kea
*******************************************************************************
Start time      : A.D. 2018-Nov-22 03:51:00.0000 UT      
Stop  time      : A.D. 2018-Nov-22 16:25:00.0000 UT      
Step-size       : 1 minutes
*******************************************************************************
Target pole/equ : undefined
Target radii    : undefined                                                    
Center geodetic : 204.5278, 19.8260847, 4.21024   {E-lon(deg),Lat(deg),Alt(km)}
Center cylindric: 204.5278, 6006.35451, 2151.0229 {E-lon(deg),Dxy(km),Dz(km)}
Center pole/equ : ITRF93                          {East-longitude positive}
Center radii    : 6378.137, 6378.137, 6356.752 km {Equator_a, b, pole_c}       
Target primary  : Sun
Vis. interferer : MOON (R_eq= 1737.400) km        {source: DE441}
Rel. light bend : Sun                             {source: DE441}
Rel. lght bnd GM: 1.3271E+11 km^3/s^2                                          
Small-body perts: Yes                             {source: SB441-N16}
Atmos refraction: NO (AIRLESS)
RA format       : HMS
Time format     : CAL 
Calendar mode   : Mixed Julian/Gregorian
RTS-only print  : NO       
EOP file        : eop.250307.p250603                                           
EOP coverage    : DATA-BASED 1962-JAN-20 TO 2025-MAR-07. PREDICTS-> 2025-JUN-02
Units conversion: 1 au= 149597870.700 km, c= 299792.458 km/s, 1 day= 86400.0 s 
Table cut-offs 1: Elevation (-90.0deg=NO ),Airmass (>38.000=NO), Daylight (YES)
Table cut-offs 2: Solar elongation (  0.0,180.0=NO ),Local Hour Angle( 0.0=NO )
Table cut-offs 3: RA/DEC angular rate (     0.0=NO )                           
*******************************************************************************
Initial IAU76/J2000 heliocentric ecliptic osculating elements (au, days, deg.):
  EPOCH=  2458431.5 ! 2018-Nov-09.00 (TDB)         Residual RMS= .2345         
   EC= .08078462401503236  QR= .9719826736009184   TP= 2458484.4320189627      
   OM= 45.37159736002829   W=  55.46172815883946   IN= 1.097814612439332       
  Equivalent ICRF heliocentric cartesian coordinates (au, au/d):
   X= 7.039692724255667E-01  Y= 6.572194580492579E-01  Z= 2.849862807208282E-01
  VX=-1.330010453008250E-02 VY= 1.042346427712734E-02 VZ= 4.885657766154543E-03
Asteroid physical parameters (km, seconds, rotational period in hours):        
   GM= n.a.                RAD= n.a.               ROTPER= n.a.                
   H= 27.25                G= .150                 B-V= n.a.                   
                           ALBEDO= n.a.            STYP= n.a.                  
*******************************************************************************
 Date__(UT)__HR:MN     R.A._________(ICRF)_________DEC
******************************************************
$$SOE
 2018-Nov-22 12:03  m  22 27 17.046123 +13 32 01.15835
 2018-Nov-22 12:04  m  22 27 16.669236 +13 32 04.01490
 2018-Nov-22 12:05  m  22 27 16.293165 +13 32 06.87248
 2018-Nov-22 12:06  m  22 27 15.917908 +13 32 09.73112
 2018-Nov-22 12:07  m  22 27 15.543465 +13 32 12.59083
 2018-Nov-22 12:08  m  22 27 15.169833 +13 32 15.45162
 2018-Nov-22 12:09  m  22 27 14.797012 +13 32 18.31350
 2018-Nov-22 12:10  m  22 27 14.425001 +13 32 21.17648
 2018-Nov-22 12:11  m  22 27 14.053797 +13 32 24.04059
 2018-Nov-22 12:12  m  22 27 13.683400 +13 32 26.90582
 2018-Nov-22 12:13  m  22 27 13.313808 +13 32 29.77220
 2018-Nov-22 12:14  m  22 27 12.945019 +13 32 32.63974
 2018-Nov-22 12:15  m  22 27 12.577033 +13 32 35.50844
 2018-Nov-22 12:16  m  22 27 12.209847 +13 32 38.37833
 2018-Nov-22 12:17  m  22 27 11.843461 +13 32 41.24941
 2018-Nov-22 12:18  m  22 27 11.477872 +13 32 44.12170
 2018-Nov-22 12:19  m  22 27 11.113080 +13 32 46.99521
 2018-Nov-22 12:20  m  22 27 10.749082 +13 32 49.86995
 2018-Nov-22 12:21  m  22 27 10.385877 +13 32 52.74593
 2018-Nov-22 12:22  m  22 27 10.023463 +13 32 55.62317
 2018-Nov-22 12:23  m  22 27 09.661840 +13 32 58.50169
 2018-Nov-22 12:24  m  22 27 09.301005 +13 33 01.38148
 2018-Nov-22 12:25  m  22 27 08.940957 +13 33 04.26257
 2018-Nov-22 12:26  m  22 27 08.581694 +13 33 07.14497
 2018-Nov-22 12:27  m  22 27 08.223214 +13 33 10.02869
 2018-Nov-22 12:28  m  22 27 07.865517 +13 33 12.91373
 2018-Nov-22 12:29  m  22 27 07.508599 +13 33 15.80013
 2018-Nov-22 12:30  m  22 27 07.152460 +13 33 18.68788
 2018-Nov-22 12:31  m  22 27 06.797098 +13 33 21.57700
 2018-Nov-22 12:32  m  22 27 06.442510 +13 33 24.46750
 2018-Nov-22 12:33  m  22 27 06.088697 +13 33 27.35940
 2018-Nov-22 12:34  m  22 27 05.735654 +13 33 30.25270
 2018-Nov-22 12:35  m  22 27 05.383382 +13 33 33.14742
 2018-Nov-22 12:36  m  22 27 05.031877 +13 33 36.04357
 2018-Nov-22 12:37  m  22 27 04.681139 +13 33 38.94116
 2018-Nov-22 12:38  m  22 27 04.331165 +13 33 41.84021
 2018-Nov-22 12:39  m  22 27 03.981954 +13 33 44.74072
 2018-Nov-22 12:40  m  22 27 03.633504 +13 33 47.64272
 2018-Nov-22 12:41  m  22 27 03.285812 +13 33 50.54620
 2018-Nov-22 12:42  m  22 27 02.938878 +13 33 53.45119
 2018-Nov-22 12:43  m  22 27 02.592699 +13 33 56.35770
 2018-Nov-22 12:44  m  22 27 02.247273 +13 33 59.26573
 2018-Nov-22 12:45  m  22 27 01.902598 +13 34 02.17530
 2018-Nov-22 12:46  m  22 27 01.558673 +13 34 05.08643
 2018-Nov-22 12:47  m  22 27 01.215495 +13 34 07.99911
 2018-Nov-22 12:48  m  22 27 00.873063 +13 34 10.91337
 2018-Nov-22 12:49  m  22 27 00.531374 +13 34 13.82922
 2018-Nov-22 12:50  m  22 27 00.190427 +13 34 16.74667
 2018-Nov-22 12:51  m  22 26 59.850220 +13 34 19.66573
 2018-Nov-22 12:52  m  22 26 59.510750 +13 34 22.58641
 2018-Nov-22 12:53  m  22 26 59.172015 +13 34 25.50873
 2018-Nov-22 12:54  m  22 26 58.834014 +13 34 28.43269
 2018-Nov-22 12:55  m  22 26 58.496745 +13 34 31.35831
 2018-Nov-22 12:56  m  22 26 58.160204 +13 34 34.28560
 2018-Nov-22 12:57  m  22 26 57.824391 +13 34 37.21457
 2018-Nov-22 12:58  m  22 26 57.489303 +13 34 40.14523
 2018-Nov-22 12:59  m  22 26 57.154938 +13 34 43.07760
 2018-Nov-22 13:00  m  22 26 56.821294 +13 34 46.01168
 2018-Nov-22 13:01  m  22 26 56.488369 +13 34 48.94750
 2018-Nov-22 13:02  m  22 26 56.156160 +13 34 51.88505
 2018-Nov-22 13:03  m  22 26 55.824666 +13 34 54.82435
 2018-Nov-22 13:04  m  22 26 55.493884 +13 34 57.76541
 2018-Nov-22 13:05  m  22 26 55.163812 +13 35 00.70825
 2018-Nov-22 13:06  m  22 26 54.834447 +13 35 03.65287
 2018-Nov-22 13:07  m  22 26 54.505789 +13 35 06.59929
 2018-Nov-22 13:08  m  22 26 54.177833 +13 35 09.54751
 2018-Nov-22 13:09  m  22 26 53.850579 +13 35 12.49756
 2018-Nov-22 13:10  m  22 26 53.524023 +13 35 15.44943
 2018-Nov-22 13:11  m  22 26 53.198164 +13 35 18.40315
 2018-Nov-22 13:12  m  22 26 52.872999 +13 35 21.35872
 2018-Nov-22 13:13  m  22 26 52.548526 +13 35 24.31615
 2018-Nov-22 13:14  m  22 26 52.224742 +13 35 27.27546
 2018-Nov-22 13:15  m  22 26 51.901646 +13 35 30.23665
 2018-Nov-22 13:16  m  22 26 51.579234 +13 35 33.19974
 2018-Nov-22 13:17  m  22 26 51.257505 +13 35 36.16474
 2018-Nov-22 13:18  m  22 26 50.936456 +13 35 39.13166
 2018-Nov-22 13:19  m  22 26 50.616085 +13 35 42.10050
 2018-Nov-22 13:20  m  22 26 50.296389 +13 35 45.07129
 2018-Nov-22 13:21  m  22 26 49.977366 +13 35 48.04403
 2018-Nov-22 13:22  m  22 26 49.659013 +13 35 51.01874
 2018-Nov-22 13:23  m  22 26 49.341328 +13 35 53.99541
 2018-Nov-22 13:24  m  22 26 49.024309 +13 35 56.97407
 2018-Nov-22 13:25  m  22 26 48.707953 +13 35 59.95473
 2018-Nov-22 13:26  m  22 26 48.392257 +13 36 02.93739
 2018-Nov-22 13:27  m  22 26 48.077220 +13 36 05.92207
 2018-Nov-22 13:28  m  22 26 47.762838 +13 36 08.90878
 2018-Nov-22 13:29  m  22 26 47.449109 +13 36 11.89752
 2018-Nov-22 13:30  m  22 26 47.136030 +13 36 14.88831
 2018-Nov-22 13:31  m  22 26 46.823599 +13 36 17.88117
 2018-Nov-22 13:32  m  22 26 46.511814 +13 36 20.87609
 2018-Nov-22 13:33  m  22 26 46.200671 +13 36 23.87309
 2018-Nov-22 13:34  m  22 26 45.890169 +13 36 26.87218
 2018-Nov-22 13:35  m  22 26 45.580304 +13 36 29.87337
 2018-Nov-22 13:36  m  22 26 45.271074 +13 36 32.87668
 2018-Nov-22 13:37  m  22 26 44.962476 +13 36 35.88210
 2018-Nov-22 13:38  m  22 26 44.654508 +13 36 38.88966
 2018-Nov-22 13:39  m  22 26 44.347168 +13 36 41.89936
 2018-Nov-22 13:40  m  22 26 44.040451 +13 36 44.91121
 2018-Nov-22 13:41  m  22 26 43.734356 +13 36 47.92522
 2018-Nov-22 13:42  m  22 26 43.428880 +13 36 50.94141
 2018-Nov-22 13:43  m  22 26 43.124020 +13 36 53.95978
 2018-Nov-22 13:44  m  22 26 42.819774 +13 36 56.98035
 2018-Nov-22 13:45  m  22 26 42.516139 +13 37 00.00311
 2018-Nov-22 13:46  m  22 26 42.213112 +13 37 03.02809
 2018-Nov-22 13:47  m  22 26 41.910690 +13 37 06.05529
 2018-Nov-22 13:48  m  22 26 41.608870 +13 37 09.08473
 2018-Nov-22 13:49  m  22 26 41.307651 +13 37 12.11640
 2018-Nov-22 13:50  m  22 26 41.007028 +13 37 15.15033
 2018-Nov-22 13:51  m  22 26 40.707000 +13 37 18.18653
 2018-Nov-22 13:52  m  22 26 40.407563 +13 37 21.22499
 2018-Nov-22 13:53  m  22 26 40.108715 +13 37 24.26573
 2018-Nov-22 13:54  m  22 26 39.810452 +13 37 27.30877
 2018-Nov-22 13:55  m  22 26 39.512772 +13 37 30.35411
 2018-Nov-22 13:56  m  22 26 39.215672 +13 37 33.40176
 2018-Nov-22 13:57  m  22 26 38.919149 +13 37 36.45173
 2018-Nov-22 13:58  m  22 26 38.623201 +13 37 39.50403
 2018-Nov-22 13:59  m  22 26 38.327824 +13 37 42.55867
 2018-Nov-22 14:00  m  22 26 38.033015 +13 37 45.61565
 2018-Nov-22 14:01  m  22 26 37.738772 +13 37 48.67500
 2018-Nov-22 14:02  m  22 26 37.445092 +13 37 51.73671
 2018-Nov-22 14:03  m  22 26 37.151971 +13 37 54.80080
 2018-Nov-22 14:04  m  22 26 36.859407 +13 37 57.86727
 2018-Nov-22 14:05  m  22 26 36.567396 +13 38 00.93614
